43578,IRIDIUM 159,2018,100.4,860.0,+,86.4,Active,1,LEO,USA,USA,Commercial/Government,Communications,Falcon,1 43578U 18061K   24213.45146236  .00000166  00000+0  52258-4 0  9994,2 43578  86.4004 343.2806 0002135  99.2193 260.9244 14.34218430315096,14.3421843,0.0002135,LEO
43922,IRIDIUM 180,2019,100.4,860.0,+,86.4,Active,1,LEO,USA,USA,Commercial/Government,Communications,Falcon,1 43922U 19002A   24213.59049701  .00000381  00000+0  12911-3 0  9997,2 43922  86.3951 280.0981 0002321  97.8936 262.2523 14.34218537290722,14.34218537,0.0002321,LEO
43923,IRIDIUM 176,2019,97.81,860.0,+,86.61,Active,1,LEO,USA,USA,Commercial/Government,Communications,Falcon,1 43923U 19002B   24213.56875834  .00000051  00000+0  41987-5 0  9990,2 43923  86.6078 280.1258 0002153  96.7037 263.4425 14.72250949298375,14.72250949,0.0002153,LEO
43924,IRIDIUM 168,2019,100.4,860.0,+,86.4,Active,1,LEO,USA,USA,Commercial/Government,Communications,Falcon,1 43924U 19002C   24213.58416271  .00000450  00000+0  15359-3 0  9994,2 43924  86.3953 280.1588 0002205  96.3030 263.8417 14.34217245290702,14.34217245,0.0002205,LEO
43925,IRIDIUM 173,2019,100.4,860.0,+,86.4,Active,1,LEO,USA,USA,Commercial/Government,Communications,Falcon,1 43925U 19002D   24213.57146957  .00000152  00000+0  47142-4 0  9990,2 43925  86.3952 280.0812 0002264  95.9811 264.1643 14.34217815290683,14.34217815,0.0002264,LEO
43926,IRIDIUM 169,2019,100.1,860.0,+,86.42,Active,1,LEO,USA,USA,Commercial/Government,Communications,Falcon,1 43926U 19002E   24213.57145690  .00000621  00000+0  19652-3 0  9999,2 43926  86.4247 311.7143 0004210  92.5057 267.6623 14.38606100291656,14.386061,0.000421,LEO
43927,IRIDIUM 172,2019,100.4,860.0,+,86.39,Active,1,LEO,USA,USA,Commercial/Government,Communications,Falcon,1 43927U 19002F   24213.56512705  .00000470  00000+0  16059-3 0  9994,2 43927  86.3951 280.0895 0002188  92.1814 267.9633 14.34217946290698,14.34217946,0.0002188,LEO
43928,IRIDIUM 175,2019,97.81,860.0,+,86.15,Active,1,LEO,USA,USA,Commercial/Government,Communications,Falcon,1 43928U 19002G   24212.61155095  .00001703  00000+0  26607-3 0  9995,2 43928  86.1478 251.2113 0002676  93.2812 266.8711 14.72260741298221,14.72260741,0.0002676,LEO
